[{"OBJECT_NAME":"STARLINK-34784","OBJECT_ID":"2025-195A","EPOCH":"2026-03-09T22:20:33.330912","MEAN_MOTION":15.30206262,"ECCENTRICITY":0.00011178,"INCLINATION":53.1579,"RA_OF_ASC_NODE":256.8535,"ARG_OF_PERICENTER":57.015,"MEAN_ANOMALY":303.0958,"EPHEMERIS_TYPE":0,"CLASSIFICATION_TYPE":"U","NORAD_CAT_ID":65458,"ELEMENT_SET_NO":999,"REV_AT_EPOCH":3003,"BSTAR":0.001106213,"MEAN_MOTION_DOT":0.00032554,"MEAN_MOTION_DDOT":0},{"OBJECT_NAME":"FENGYUN 1C DEB","OBJECT_ID":"1999-025AUA","EPOCH":"2026-03-09T22:20:03.086592","MEAN_MOTION":15.37519861,"ECCENTRICITY":0.00616014,"INCLINATION":98.7858,"RA_OF_ASC_NODE":60.8335,"ARG_OF_PERICENTER":230.1589,"MEAN_ANOMALY":129.4222,"EPHEMERIS_TYPE":0,"CLASSIFICATION_TYPE":"U","NORAD_CAT_ID":30764,"ELEMENT_SET_NO":999,"REV_AT_EPOCH":2558,"BSTAR":0.00082447851,"MEAN_MOTION_DOT":0.00032356,"MEAN_MOTION_DDOT":0}]
